STARLINK-1007           
1 44713U 19074A   23305.60004047  .00009793  00000+0  67533-3 0  9998
2 44713  53.0539  83.2207 0001265  85.1275 274.9858 15.06406198219263
STARLINK-1008           
1 44714U 19074B   23305.57885272  .00002695  00000+0  19974-3 0  9992
2 44714  53.0548  83.3161 0001170  88.2019 271.9104 15.06396500219265
STARLINK-1009           
1 44715U 19074C   23305.56779994  .00002254  00000+0  17020-3 0  9996
2 44715  53.0547  83.3689 0001359  86.7706 273.3439 15.06391384219256
STARLINK-1010           
1 44716U 19074D   23305.58623103  .00007933  00000+0  55080-3 0  9996
2 44716  53.0541  83.2842 0001265  79.2842 280.8289 15.06404477219248
STARLINK-1011           
1 44717U 19074E   23305.58439438  .00004920  00000+0  34895-3 0  9997
2 44717  53.0530 103.2914 0001151  93.9443 266.1677 15.06399341218985
STARLINK-1012           
1 44718U 19074F   23305.55673737 -.00000018  00000+0  17657-4 0  9990
2 44718  53.0554  83.4179 0001342  80.5562 279.5578 15.06395908219254
STARLINK-1013           
1 44719U 19074G   23305.56411249  .00001620  00000+0  12763-3 0  9991
2 44719  53.0549  83.3857 0001250  89.3231 270.7901 15.06393060220385
STARLINK-1014           
1 44720U 19074H   23305.58159859  .00014479  00000+0  98869-3 0  9998
2 44720  53.0546  83.2961 0001683  73.8375 286.2799 15.06408612219268
STARLINK-1015           
1 44721U 19074J   23305.57148550  .00002046  00000+0  15621-3 0  9996
2 44721  53.0540  83.3491 0001240  89.9434 270.1697 15.06394147219250
STARLINK-1017           
1 44723U 19074L   23305.58991775  .00005996  00000+0  42105-3 0  9998
2 44723  53.0549  83.2681 0001173  78.6144 281.4976 15.06399566219265
STARLINK-1019           
1 44724U 19074M   23305.61939783  .00002733  00000+0  20231-3 0  9996
2 44724  53.0548  83.1362 0001390  81.7585 278.3561 15.06402363219260
STARLINK-1020           
1 44725U 19074N   23305.16050239  .00001984  00000+0  15206-3 0  9990
2 44725  53.0546 105.1949 0001305  82.9259 277.1878 15.06395767218910
STARLINK-1021           
1 44726U 19074P   23305.61571464 -.00002709  00000+0 -16311-3 0  9995
2 44726  53.0561  83.1483 0001789  89.2180 270.9014 15.06387317219269
STARLINK-1024           
1 44729U 19074S   23305.43256971  .00051804  00000+0  68764-3 0  9998
2 44729  53.0172 357.9440 0003715 276.9723  83.0865 15.57736941220394
STARLINK-1027           
1 44732U 19074V   23305.61386247  .00004362  00000+0  31147-3 0  9994
2 44732  53.0553 103.1614 0001082  73.1506 286.9602 15.06411781218987
STARLINK-1028           
1 44733U 19074W   23305.61202664  .00003862  00000+0  27807-3 0  9997
2 44733  53.0542  83.1648 0001198  79.1952 280.9172 15.06393710219268
STARLINK-1029           
1 44734U 19074X   23305.56043215 -.00000015  00000+0  17903-4 0  9992
2 44734  53.0548   3.4031 0001506 106.9704 253.1450 15.06398862220359
STARLINK-1030           
1 44735U 19074Y   23305.62123962  .00001711  00000+0  13373-3 0  9997
2 44735  53.0548 103.1265 0001728  81.9783 278.1402 15.06402929218982
STARLINK-1031           
1 44736U 19074Z   23305.43694971  .00004038  00000+0  28981-3 0  9996
2 44736  53.0551 103.9577 0001368  84.9066 275.2079 15.06399302218964
STARLINK-1032           
1 44737U 19074AA  23305.18261497  .00001153  00000+0  96267-4 0  9990
2 44737  53.0543 105.0955 0001341  86.2713 273.8429 15.06396811218925
STARLINK-1035           
1 44740U 19074AD  23305.44413889  .00007393  00000+0  51357-3 0  9999
2 44740  53.0539 103.9206 0001248  90.3568 269.7564 15.06481364218966
STARLINK-1036           
1 44741U 19074AE  23305.58806664  .00001169  00000+0  97354-4 0  9995
2 44741  53.0552 103.2735 0001567  97.5599 262.5568 15.06402488218986
STARLINK-1038           
1 44743U 19074AG  23305.23975685  .00007924  00000+0  55025-3 0  9992
2 44743  53.0525 124.8391 0001058  93.0854 267.0256 15.06402339218748
STARLINK-1039           
1 44744U 19074AH  23304.78638174  .00004868  00000+0  34536-3 0  9999
2 44744  53.0520 126.8736 0001365  91.1056 269.0089 15.06414162218588
STARLINK-1041           
1 44746U 19074AK  23305.50145014  .00001684  00000+0  13193-3 0  9997
2 44746  53.0530 123.6649 0002245  94.2027 265.9219 15.06398577218861
STARLINK-1042           
1 44747U 19074AL  23305.19919804  .00000502  00000+0  52589-4 0  9990
2 44747  53.0528 125.0219 0001446  93.6481 266.4673 15.06397961218650
STARLINK-1043           
1 44748U 19074AM  23305.49408431  .00006680  00000+0  46684-3 0  9994
2 44748  53.0531 123.6991 0001296  99.8467 260.2669 15.06406731218867
STARLINK-1046           
1 44751U 19074AQ  23305.50884080  .00005608  00000+0  39514-3 0  9991
2 44751  53.0528 123.6314 0001590  92.8398 267.2773 15.06396030218862
STARLINK-1047           
1 44752U 19074AR  23305.59544289  .00001408  00000+0  11338-3 0  9993
2 44752  53.0550 103.2429 0001149  89.2121 270.8999 15.06392876218980
STARLINK-1048           
1 44753U 19074AS  23305.60097454  .00001797  00000+0  13952-3 0  9998
2 44753  53.0538  83.2168 0000779  72.1153 287.9920 15.06396495219264
STARLINK-1052           
1 44757U 19074AW  23305.59279370  .00015320  00000+0  94484-3 0  9995
2 44757  53.0547 102.4187 0001659 189.2415 170.8546 15.10123476218997
STARLINK-1053           
1 44758U 19074AX  23305.49040158  .00001082  00000+0  91496-4 0  9996
2 44758  53.0529 123.8016 0001785  85.8133 274.3060 15.06408333218864
STARLINK-1054           
1 44759U 19074AY  23305.20657958  .00001316  00000+0  10718-3 0  9995
2 44759  53.0520 124.9885 0001450  90.3182 269.7973 15.06411002218820
STARLINK-1055           
1 44760U 19074AZ  23305.55784297  .00009219  00000+0  41703-3 0  9990
2 44760  53.0469 104.2328 0001342 178.5291 181.5709 15.21612647218987
STARLINK-1056           
1 44761U 19074BA  23305.20288862  .00000723  00000+0  67444-4 0  9992
2 44761  53.0528 125.0060 0001897  86.7515 273.3691 15.06400177218652
STARLINK-1057           
1 44762U 19074BB  23305.60281608  .00002554  00000+0  19030-3 0  9999
2 44762  53.0528 103.2080 0001313  88.2631 271.8508 15.06397706218981
STARLINK-1058           
1 44763U 19074BC  23305.00001157  .00016388  00000+0  11171-2 0  9990
2 44763  53.0523 126.2642 0001303  82.4299 316.6329 15.06380231  5811
STARLINK-1059           
1 44764U 19074BD  23305.59972968  .00012489  00000+0  49944-3 0  9990
2 44764  53.0841  69.4873 0005104 183.0185 177.0783 15.25472013219477
STARLINK-1060           
1 44765U 19074BE  23305.61756172  .00000601  00000+0  59260-4 0  9997
2 44765  53.0550 103.1450 0001310  95.7540 264.3598 15.06390684218982
STARLINK-1061           
1 44766U 19074BF  23304.88589927  .00006859  00000+0  47871-3 0  9993
2 44766  53.0541 126.4305 0001679  93.9337 266.1844 15.06413749218771
STARLINK-1062           
1 44767U 19074BG  23305.20931625  .00003634  00000+0  26273-3 0  9998
2 44767  53.0518 124.9654 0001352  87.5590 272.5554 15.06398524218653
STARLINK-1063           
1 44768U 19074BH  23305.49776601  .00001275  00000+0  10446-3 0  9995
2 44768  53.0529 123.6811 0001442  89.6573 270.4581 15.06395375218862
STARLINK-1067           
1 44771U 19074BL  23305.22134377  .00014350  00000+0  98111-3 0  9991
2 44771  53.0532 124.9251 0001652 107.3198 252.7972 15.06369637218652
STARLINK-1068           
1 44772U 19074BM  23305.61019702  .00001490  00000+0  11889-3 0  9997
2 44772  53.0535 103.1769 0001285  83.2951 276.8184 15.06399524218986
STARLINK-1073           
1 44914U 20001A   23305.56043983  .00014551  00000+0  99358-3 0  9998
2 44914  53.0560 243.4002 0001745  86.7004 273.4184 15.06406410210357
STARLINK-1084           
1 44915U 20001B   23305.52356884  .00005339  00000+0  37715-3 0  9995
2 44915  53.0557 243.5655 0003132  93.0395 267.0952 15.06392849210357
STARLINK-1098           
1 44917U 20001D   23305.52726462  .00009904  00000+0  68282-3 0  9995
2 44917  53.0554 243.5467 0001726 105.3327 254.7853 15.06400766210357
STARLINK-1099           
1 44918U 20001E   23305.58335648  .01345376  00000+0  56347-1 0  9998
2 44918  53.0549 243.0591 0001419  95.1235 272.3213 15.20283844  5808
STARLINK-1102           
1 44920U 20001G   23305.05279232  .00014089  00000+0  58002-3 0  9994
2 44920  53.0504 220.2007 0002698  43.3252 316.7957 15.24390817210646
STARLINK-1103           
1 44921U 20001H   23305.57407596  .00018896  00000+0  12796-2 0  9997
2 44921  53.0543 243.3282 0001532 109.8068 250.3087 15.06528154210330
STARLINK-1104           
1 44922U 20001J   23305.54201468  .00014966  00000+0  10215-2 0  9993
2 44922  53.0549 243.4813 0001364  89.4674 270.6471 15.06398008210354
STARLINK-1106           
1 44923U 20001K   23305.52741218  .00011129  00000+0  51356-3 0  9994
2 44923  53.0535 227.1049 0001479 120.8298 239.2843 15.20714866210588
STARLINK-1111           
1 44924U 20001L   23305.55675992  .00019937  00000+0  13533-2 0  9992
2 44924  53.0541 243.4390 0001391  88.8643 271.2505 15.06407442210355
STARLINK-1112           
1 44925U 20001M   23305.23976005  .00025888  00000+0  17497-2 0  9992
2 44925  53.0548 244.8426 0001724 111.0007 249.1167 15.06416939210305
STARLINK-1113           
1 44926U 20001N   23305.56783155  .00008979  00000+0  62118-3 0  9994
2 44926  53.0547 243.4552 0001706  75.0486 285.0691 15.06385433211047
STARLINK-1114           
1 44927U 20001P   23305.25079906  .00023855  00000+0  16124-2 0  9998
2 44927  53.0549 244.7900 0001455  80.3148 279.8005 15.06458826210312
STARLINK-1119           
1 44928U 20001Q   23305.58335648  .00006939  00000+0  23391-3 0  9992
2 44928  53.0512 241.9203 0001225  95.6194 276.6894 15.31870051  5750
STARLINK-1121           
1 44929U 20001R   23305.58335648  .01294200  00000+0  35026-1 0  9990
2 44929  53.0496 242.2192 0001338 104.5383 193.7062 15.34370822  5804
STARLINK-1123           
1 44930U 20001S   23305.53093669 -.00000855  00000+0 -38478-4 0  9990
2 44930  53.0563 243.5328 0002005  82.9743 277.1474 15.06401392210355
